{
  "type": "FeatureCollection",
  "features": [
    {
      "type": "Feature",
      "properties": {
        "norad_id": 40069,
        "name": "METEOR-M 2",
        "group": "weather",
        "lat": 49.04943550659666,
        "lon": -55.65460909548906,
        "alt_km": 819.4627024082793,
        "timestamp": "2025-12-02T06:27:52.663780+00:00",
        "meta_object_name": "METEOR-M 2",
        "meta_object_id": "2014-037A",
        "meta_epoch": "2025-12-01T21:47:01.473216",
        "meta_mean_motion": 14.21379565,
        "meta_eccentricity": 0.000467,
        "meta_inclination": 98.4891,
        "meta_ra_of_asc_node": 313.9081,
        "meta_arg_of_pericenter": 246.3385,
        "meta_mean_anomaly": 113.7303,
        "meta_ephemeris_type": 0,
        "meta_classification_type": "U",
        "meta_norad_cat_id": 40069,
        "meta_element_set_no": 999,
        "meta_rev_at_epoch": 59129,
        "meta_bstar": 9.8635e-05,
        "meta_mean_motion_dot": 1.73e-06,
        "meta_mean_motion_ddot": 0,
        "tle_line1": "1 40069U 14037A   25335.90765594  .00000173  00000+0  98635-4 0  9992",
        "tle_line2": "2 40069  98.4891 313.9081 0004670 246.3385 113.7303 14.21379565591290"
      },
      "geometry": {
        "type": "Point",
        "coordinates": [
          -55.65460909548906,
          49.04943550659666
        ]
      }
    },
    {
      "type": "Feature",
      "properties": {
        "norad_id": 40267,
        "name": "HIMAWARI-8",
        "group": "weather",
        "lat": 0.010913296702363916,
        "lon": -50.99023030176859,
        "alt_km": 35781.536253605926,
        "timestamp": "2025-12-02T06:27:52.663792+00:00",
        "meta_object_name": "HIMAWARI-8",
        "meta_object_id": "2014-060A",
        "meta_epoch": "2025-12-01T19:37:10.914816",
        "meta_mean_motion": 1.00272633,
        "meta_eccentricity": 0.0001214,
        "meta_inclination": 0.0427,
        "meta_ra_of_asc_node": 139.3784,
        "meta_arg_of_pericenter": 138.0148,
        "meta_mean_anomaly": 228.5173,
        "meta_ephemeris_type": 0,
        "meta_classification_type": "U",
        "meta_norad_cat_id": 40267,
        "meta_element_set_no": 999,
        "meta_rev_at_epoch": 4078,
        "meta_bstar": 0,
        "meta_mean_motion_dot": -2.53e-06,
        "meta_mean_motion_ddot": 0,
        "tle_line1": "1 40267U 14060A   25335.81748744 -.00000253  00000+0  00000+0 0  9990",
        "tle_line2": "2 40267   0.0427 139.3784 0001214 138.0148 228.5173  1.00272633 40783"
      },
      "geometry": {
        "type": "Point",
        "coordinates": [
          -50.99023030176859,
          0.010913296702363916
        ]
      }
    },
    {
      "type": "Feature",
      "properties": {
        "norad_id": 40367,
        "name": "FENGYUN 2G",
        "group": "weather",
        "lat": -1.160449942404279,
        "lon": -91.99185372036192,
        "alt_km": 35774.551034440046,
        "timestamp": "2025-12-02T06:27:52.663804+00:00",
        "meta_object_name": "FENGYUN 2G",
        "meta_object_id": "2014-090A",
        "meta_epoch": "2025-12-01T19:25:27.039072",
        "meta_mean_motion": 1.00268232,
        "meta_eccentricity": 0.0003012,
        "meta_inclination": 5.1381,
        "meta_ra_of_asc_node": 75.2239,
        "meta_arg_of_pericenter": 193.0179,
        "meta_mean_anomaly": 193.7823,
        "meta_ephemeris_type": 0,
        "meta_classification_type": "U",
        "meta_norad_cat_id": 40367,
        "meta_element_set_no": 999,
        "meta_rev_at_epoch": 4002,
        "meta_bstar": 0,
        "meta_mean_motion_dot": -2.82e-06,
        "meta_mean_motion_ddot": 0,
        "tle_line1": "1 40367U 14090A   25335.80934073 -.00000282  00000+0  00000+0 0  9997",
        "tle_line2": "2 40367   5.1381  75.2239 0003012 193.0179 193.7823  1.00268232 40027"
      },
      "geometry": {
        "type": "Point",
        "coordinates": [
          -91.99185372036192,
          -1.160449942404279
        ]
      }
    },
    {
      "type": "Feature",
      "properties": {
        "norad_id": 40732,
        "name": "METEOSAT-11 (MSG-4)",
        "group": "weather",
        "lat": 2.591838363745278,
        "lon": 177.78270662214265,
        "alt_km": 35783.47624319065,
        "timestamp": "2025-12-02T06:27:52.663817+00:00",
        "meta_object_name": "METEOSAT-11 (MSG-4)",
        "meta_object_id": "2015-034A",
        "meta_epoch": "2025-12-01T18:59:44.500992",
        "meta_mean_motion": 1.00277288,
        "meta_eccentricity": 2.74e-05,
        "meta_inclination": 2.7082,
        "meta_ra_of_asc_node": 72.0283,
        "meta_arg_of_pericenter": 159.2077,
        "meta_mean_anomaly": 134.042,
        "meta_ephemeris_type": 0,
        "meta_classification_type": "U",
        "meta_norad_cat_id": 40732,
        "meta_element_set_no": 999,
        "meta_rev_at_epoch": 523,
        "meta_bstar": 0,
        "meta_mean_motion_dot": 8.5e-07,
        "meta_mean_motion_ddot": 0,
        "tle_line1": "1 40732U 15034A   25335.79148728  .00000085  00000+0  00000+0 0  9994",
        "tle_line2": "2 40732   2.7082  72.0283 0000274 159.2077 134.0420  1.00277288  5232"
      },
      "geometry": {
        "type": "Point",
        "coordinates": [
          177.78270662214265,
          2.591838363745278
        ]
      }
    },
    {
      "type": "Feature",
      "properties": {
        "norad_id": 41105,
        "name": "ELEKTRO-L 2",
        "group": "weather",
        "lat": 6.113606303210481,
        "lon": 153.71783511168016,
        "alt_km": 35792.9985827593,
        "timestamp": "2025-12-02T06:27:52.663829+00:00",
        "meta_object_name": "ELEKTRO-L 2",
        "meta_object_id": "2015-074A",
        "meta_epoch": "2025-12-01T15:35:14.200224",
        "meta_mean_motion": 1.00269964,
        "meta_eccentricity": 0.00039057,
        "meta_inclination": 6.1953,
        "meta_ra_of_asc_node": 72.9577,
        "meta_arg_of_pericenter": 196.803,
        "meta_mean_anomaly": 20.3023,
        "meta_ephemeris_type": 0,
        "meta_classification_type": "U",
        "meta_norad_cat_id": 41105,
        "meta_element_set_no": 999,
        "meta_rev_at_epoch": 3652,
        "meta_bstar": 0,
        "meta_mean_motion_dot": -9.7e-07,
        "meta_mean_motion_ddot": 0,
        "tle_line1": "1 41105U 15074A   25335.64946991 -.00000097  00000+0  00000+0 0  9999",
        "tle_line2": "2 41105   6.1953  72.9577 0003905 196.8030  20.3023  1.00269964 36521"
      },
      "geometry": {
        "type": "Point",
        "coordinates": [
          153.71783511168016,
          6.113606303210481
        ]
      }
    },
    {
      "type": "Feature",
      "properties": {
        "norad_id": 41752,
        "name": "INSAT-3DR",
        "group": "weather",
        "lat": -0.0015657231511601601,
        "lon": -117.71708798005295,
        "alt_km": 35732.16629651969,
        "timestamp": "2025-12-02T06:27:52.663841+00:00",
        "meta_object_name": "INSAT-3DR",
        "meta_object_id": "2016-054A",
        "meta_epoch": "2025-12-01T19:18:12.732192",
        "meta_mean_motion": 1.00269656,
        "meta_eccentricity": 0.0014361,
        "meta_inclination": 0.0629,
        "meta_ra_of_asc_node": 89.9291,
        "meta_arg_of_pericenter": 178.7732,
        "meta_mean_anomaly": 165.8109,
        "meta_ephemeris_type": 0,
        "meta_classification_type": "U",
        "meta_norad_cat_id": 41752,
        "meta_element_set_no": 999,
        "meta_rev_at_epoch": 3383,
        "meta_bstar": 0,
        "meta_mean_motion_dot": -5.6e-07,
        "meta_mean_motion_ddot": 0,
        "tle_line1": "1 41752U 16054A   25335.80431403 -.00000056  00000+0  00000+0 0  9996",
        "tle_line2": "2 41752   0.0629  89.9291 0014361 178.7732 165.8109  1.00269656 33838"
      },
      "geometry": {
        "type": "Point",
        "coordinates": [
          -117.71708798005295,
          -0.0015657231511601601
        ]
      }
    },
    {
      "type": "Feature",
      "properties": {
        "norad_id": 41836,
        "name": "HIMAWARI-9",
        "group": "weather",
        "lat": -0.005552418792244593,
        "lon": -50.93441229343397,
        "alt_km": 35776.43437050544,
        "timestamp": "2025-12-02T06:27:52.663852+00:00",
        "meta_object_name": "HIMAWARI-9",
        "meta_object_id": "2016-064A",
        "meta_epoch": "2025-12-01T20:24:38.619936",
        "meta_mean_motion": 1.00272319,
        "meta_eccentricity": 0.0002309,
        "meta_inclination": 0.0209,
        "meta_ra_of_asc_node": 319.9176,
        "meta_arg_of_pericenter": 338.5098,
        "meta_mean_anomaly": 219.4399,
        "meta_ephemeris_type": 0,
        "meta_classification_type": "U",
        "meta_norad_cat_id": 41836,
        "meta_element_set_no": 999,
        "meta_rev_at_epoch": 3323,
        "meta_bstar": 0,
        "meta_mean_motion_dot": 0,
        "meta_mean_motion_ddot": 0,
        "tle_line1": "1 41836U 16064A   25335.85044699  .00000000  00000+0  00000+0 0  9990",
        "tle_line2": "2 41836   0.0209 319.9176 0002309 338.5098 219.4399  1.00272319 33234"
      },
      "geometry": {
        "type": "Point",
        "coordinates": [
          -50.93441229343397,
          -0.005552418792244593
        ]
      }
    }
  ]
}